[{"OBJECT_NAME":"OBJECT B","OBJECT_ID":"2024-018B","EPOCH":"2026-03-09T23:37:58.932768","MEAN_MOTION":14.43067172,"ECCENTRICITY":0.04162119,"INCLINATION":58.6942,"RA_OF_ASC_NODE":207.6312,"ARG_OF_PERICENTER":352.1605,"MEAN_ANOMALY":7.3044,"EPHEMERIS_TYPE":0,"CLASSIFICATION_TYPE":"U","NORAD_CAT_ID":58850,"ELEMENT_SET_NO":999,"REV_AT_EPOCH":11107,"BSTAR":0.00029384903,"MEAN_MOTION_DOT":2.642e-5,"MEAN_MOTION_DDOT":0},{"OBJECT_NAME":"FENGYUN 1C DEB","OBJECT_ID":"1999-025XZ","EPOCH":"2026-03-09T23:51:20.154528","MEAN_MOTION":14.08017667,"ECCENTRICITY":0.01063575,"INCLINATION":98.9602,"RA_OF_ASC_NODE":128.523,"ARG_OF_PERICENTER":44.9371,"MEAN_ANOMALY":77.0778,"EPHEMERIS_TYPE":0,"CLASSIFICATION_TYPE":"U","NORAD_CAT_ID":30264,"ELEMENT_SET_NO":999,"REV_AT_EPOCH":97785,"BSTAR":0.00095228358,"MEAN_MOTION_DOT":1.662e-5,"MEAN_MOTION_DDOT":0}]
